{
  "type": "FeatureCollection",
  "features": [
    {
      "type": "Feature",
      "properties": {
        "norad_id": 37238,
        "name": "INTELSAT 17 (IS-17)",
        "group": "intelsat",
        "lat": 0.01737941575517665,
        "lon": 81.38810574507428,
        "alt_km": 35795.775034448205,
        "timestamp": "2025-12-26T18:39:31.940116+00:00",
        "meta_object_name": "INTELSAT 17 (IS-17)",
        "meta_object_id": "2010-065B",
        "meta_epoch": "2025-12-26T15:53:27.454848",
        "meta_mean_motion": 1.00272011,
        "meta_eccentricity": 0.00029351,
        "meta_inclination": 0.0297,
        "meta_ra_of_asc_node": 74.8027,
        "meta_arg_of_pericenter": 224.8642,
        "meta_mean_anomaly": 100.0752,
        "meta_ephemeris_type": 0,
        "meta_classification_type": "U",
        "meta_norad_cat_id": 37238,
        "meta_element_set_no": 999,
        "meta_rev_at_epoch": 5151,
        "meta_bstar": 0,
        "meta_mean_motion_dot": 0,
        "meta_mean_motion_ddot": 0,
        "tle_line1": "1 37238U 10065B   25360.66212332  .00000000  00000+0  00000+0 0  9994",
        "tle_line2": "2 37238   0.0297  74.8027 0002935 224.8642 100.0752  1.00272011 51519"
      },
      "geometry": {
        "type": "Point",
        "coordinates": [
          81.38810574507428,
          0.01737941575517665
        ]
      }
    },
    {
      "type": "Feature",
      "properties": {
        "norad_id": 37392,
        "name": "INTELSAT 28 (IS-28)",
        "group": "intelsat",
        "lat": -1.3420433762131148,
        "lon": -16.27148260489088,
        "alt_km": 35781.066293610245,
        "timestamp": "2025-12-26T18:39:31.940127+00:00",
        "meta_object_name": "INTELSAT 28 (IS-28)",
        "meta_object_id": "2011-016A",
        "meta_epoch": "2025-12-26T00:24:38.640960",
        "meta_mean_motion": 1.00271568,
        "meta_eccentricity": 0.00037974,
        "meta_inclination": 1.3569,
        "meta_ra_of_asc_node": 84.9113,
        "meta_arg_of_pericenter": 188.0675,
        "meta_mean_anomaly": 156.2464,
        "meta_ephemeris_type": 0,
        "meta_classification_type": "U",
        "meta_norad_cat_id": 37392,
        "meta_element_set_no": 999,
        "meta_rev_at_epoch": 5154,
        "meta_bstar": 0,
        "meta_mean_motion_dot": -2.03e-06,
        "meta_mean_motion_ddot": 0,
        "tle_line1": "1 37392U 11016A   25360.01711390 -.00000203  00000+0  00000+0 0  9995",
        "tle_line2": "2 37392   1.3569  84.9113 0003797 188.0675 156.2464  1.00271568 51540"
      },
      "geometry": {
        "type": "Point",
        "coordinates": [
          -16.27148260489088,
          -1.3420433762131148
        ]
      }
    },
    {
      "type": "Feature",
      "properties": {
        "norad_id": 37834,
        "name": "INTELSAT 18 (IS-18)",
        "group": "intelsat",
        "lat": -0.01534237710016502,
        "lon": -164.6305291553093,
        "alt_km": 35786.787253785245,
        "timestamp": "2025-12-26T18:39:31.940139+00:00",
        "meta_object_name": "INTELSAT 18 (IS-18)",
        "meta_object_id": "2011-056A",
        "meta_epoch": "2025-12-26T14:08:38.671008",
        "meta_mean_motion": 1.00271921,
        "meta_eccentricity": 0.00019599,
        "meta_inclination": 0.0157,
        "meta_ra_of_asc_node": 300.7511,
        "meta_arg_of_pericenter": 349.9551,
        "meta_mean_anomaly": 196.7855,
        "meta_ephemeris_type": 0,
        "meta_classification_type": "U",
        "meta_norad_cat_id": 37834,
        "meta_element_set_no": 999,
        "meta_rev_at_epoch": 5208,
        "meta_bstar": 0,
        "meta_mean_motion_dot": 7.5e-07,
        "meta_mean_motion_ddot": 0,
        "tle_line1": "1 37834U 11056A   25360.58933647  .00000075  00000+0  00000+0 0  9999",
        "tle_line2": "2 37834   0.0157 300.7511 0001959 349.9551 196.7855  1.00271921 52086"
      },
      "geometry": {
        "type": "Point",
        "coordinates": [
          -164.6305291553093,
          -0.01534237710016502
        ]
      }
    },
    {
      "type": "Feature",
      "properties": {
        "norad_id": 38098,
        "name": "INTELSAT 22 (IS-22)",
        "group": "intelsat",
        "lat": 0.03452770316330003,
        "lon": 87.48982975541244,
        "alt_km": 35793.423068778444,
        "timestamp": "2025-12-26T18:39:31.940151+00:00",
        "meta_object_name": "INTELSAT 22 (IS-22)",
        "meta_object_id": "2012-011A",
        "meta_epoch": "2025-12-26T13:22:36.172704",
        "meta_mean_motion": 1.00270642,
        "meta_eccentricity": 0.00019628,
        "meta_inclination": 0.0333,
        "meta_ra_of_asc_node": 52.9825,
        "meta_arg_of_pericenter": 246.7744,
        "meta_mean_anomaly": 68.2798,
        "meta_ephemeris_type": 0,
        "meta_classification_type": "U",
        "meta_norad_cat_id": 38098,
        "meta_element_set_no": 999,
        "meta_rev_at_epoch": 545,
        "meta_bstar": 0,
        "meta_mean_motion_dot": 0,
        "meta_mean_motion_ddot": 0,
        "tle_line1": "1 38098U 12011A   25360.55736311  .00000000  00000+0  00000+0 0  9998",
        "tle_line2": "2 38098   0.0333  52.9825 0001962 246.7744  68.2798  1.00270642  5458"
      },
      "geometry": {
        "type": "Point",
        "coordinates": [
          87.48982975541244,
          0.03452770316330003
        ]
      }
    },
    {
      "type": "Feature",
      "properties": {
        "norad_id": 38356,
        "name": "INTELSAT 19 (IS-19)",
        "group": "intelsat",
        "lat": -0.003077036009149843,
        "lon": -178.6315404988989,
        "alt_km": 35786.29675159739,
        "timestamp": "2025-12-26T18:39:31.940163+00:00",
        "meta_object_name": "INTELSAT 19 (IS-19)",
        "meta_object_id": "2012-030A",
        "meta_epoch": "2025-12-26T11:22:38.784000",
        "meta_mean_motion": 1.00271978,
        "meta_eccentricity": 0.0003011,
        "meta_inclination": 0.0091,
        "meta_ra_of_asc_node": 344.0372,
        "meta_arg_of_pericenter": 288.5375,
        "meta_mean_anomaly": 159.3149,
        "meta_ephemeris_type": 0,
        "meta_classification_type": "U",
        "meta_norad_cat_id": 38356,
        "meta_element_set_no": 999,
        "meta_rev_at_epoch": 4871,
        "meta_bstar": 0,
        "meta_mean_motion_dot": -3.4e-07,
        "meta_mean_motion_ddot": 0,
        "tle_line1": "1 38356U 12030A   25360.47406000 -.00000034  00000+0  00000+0 0  9994",
        "tle_line2": "2 38356   0.0091 344.0372 0003011 288.5375 159.3149  1.00271978 48710"
      },
      "geometry": {
        "type": "Point",
        "coordinates": [
          -178.6315404988989,
          -0.003077036009149843
        ]
      }
    },
    {
      "type": "Feature",
      "properties": {
        "norad_id": 38740,
        "name": "INTELSAT 20 (IS-20)",
        "group": "intelsat",
        "lat": 0.017983385393298443,
        "lon": 83.89429114905113,
        "alt_km": 35786.75896071172,
        "timestamp": "2025-12-26T18:39:31.940175+00:00",
        "meta_object_name": "INTELSAT 20 (IS-20)",
        "meta_object_id": "2012-043A",
        "meta_epoch": "2025-12-26T02:10:38.891424",
        "meta_mean_motion": 1.00277669,
        "meta_eccentricity": 0.00019573,
        "meta_inclination": 0.0128,
        "meta_ra_of_asc_node": 61.9497,
        "meta_arg_of_pericenter": 128.5096,
        "meta_mean_anomaly": 5.5509,
        "meta_ephemeris_type": 0,
        "meta_classification_type": "U",
        "meta_norad_cat_id": 38740,
        "meta_element_set_no": 999,
        "meta_rev_at_epoch": 4901,
        "meta_bstar": 0,
        "meta_mean_motion_dot": -4e-08,
        "meta_mean_motion_ddot": 0,
        "tle_line1": "1 38740U 12043A   25360.09072791 -.00000004  00000+0  00000+0 0  9996",
        "tle_line2": "2 38740   0.0128  61.9497 0001957 128.5096   5.5509  1.00277669 49010"
      },
      "geometry": {
        "type": "Point",
        "coordinates": [
          83.89429114905113,
          0.017983385393298443
        ]
      }
    },
    {
      "type": "Feature",
      "properties": {
        "norad_id": 38749,
        "name": "INTELSAT 21 (IS-21)",
        "group": "intelsat",
        "lat": -0.016432194005092517,
        "lon": -42.574675424408994,
        "alt_km": 35781.346244062,
        "timestamp": "2025-12-26T18:39:31.940187+00:00",
        "meta_object_name": "INTELSAT 21 (IS-21)",
        "meta_object_id": "2012-045A",
        "meta_epoch": "2025-12-26T05:54:07.054272",
        "meta_mean_motion": 1.00271929,
        "meta_eccentricity": 0.00017513,
        "meta_inclination": 0.0183,
        "meta_ra_of_asc_node": 334.425,
        "meta_arg_of_pericenter": 292.8678,
        "meta_mean_anomaly": 218.2466,
        "meta_ephemeris_type": 0,
        "meta_classification_type": "U",
        "meta_norad_cat_id": 38749,
        "meta_element_set_no": 999,
        "meta_rev_at_epoch": 4879,
        "meta_bstar": 0,
        "meta_mean_motion_dot": -2.63e-06,
        "meta_mean_motion_ddot": 0,
        "tle_line1": "1 38749U 12045A   25360.24591498 -.00000263  00000+0  00000+0 0  9991",
        "tle_line2": "2 38749   0.0183 334.4250 0001751 292.8678 218.2466  1.00271929 48790"
      },
      "geometry": {
        "type": "Point",
        "coordinates": [
          -42.574675424408994,
          -0.016432194005092517
        ]
      }
    }
  ]
}